sekido
1 99901U 26001A   26047.00000000  .00000000  00000-0  00000-0 0    10
2 99901   0.0000   0.0000 0001000   0.0000   0.0000  2.00000000    14

